STARLINK-31636          
1 59747U 24090T   26068.63415125 -.00001493  00000+0 -44775-4 0  9995
2 59747  43.0001 183.6374 0000921 205.3251 154.7555 15.27568577103430
2025-313BE              
1 67482U 25313BE  26068.69721505  .00077178  00000+0  26504-2 0  9996
2 67482  97.3989 145.3568 0007208 335.3714  24.7181 15.29801687  7972
